NORAD_CAT_ID,OBJECT_NAME,OBJECT_TYPE,EPOCH,MEAN_MOTION,ECCENTRICITY,INCLINATION,RA_OF_ASC_NODE,ARG_OF_PERICENTER,MEAN_ANOMALY,BSTAR,MEAN_MOTION_DOT,MEAN_MOTION_DDOT,TLE_LINE0,TLE_LINE1,TLE_LINE2,SEMIMAJOR_AXIS,PERIOD,APOGEE,PERIGEE,DECAYED
52114.0,STARLINK-3737,PAYLOAD,2023-05-15 09:08:18,15.08845887,0.0001456,53.2166,19.8614,54.0556,306.0571,0.0001916,2.763e-05,0.0,0 STARLINK-3737,1 52114U 22029AC  23135.38077338  .00002763  00000-0  19160-3 0  9999,2 52114  53.2166  19.8614 0001456  54.0556 306.0571 15.08845887 65397,6917.862,95.437,540.735,538.72,0.0
52114.0,STARLINK-3737,PAYLOAD,2023-05-16 01:02:10,15.08848685,0.000108,53.2173,16.8923,100.18,259.9314,0.00022337,3.27e-05,0.0,0 STARLINK-3737,1 52114U 22029AC  23136.04317220  .00003270  00000-0  22337-3 0  9994,2 52114  53.2173  16.8923 0001080 100.1800 259.9314 15.08848685 65494,6917.854,95.437,540.466,538.972,0.0
52114.0,STARLINK-3737,PAYLOAD,2023-05-16 21:42:11,15.08834097,0.000119,53.2178,13.0253,97.3351,262.7776,-9.5019e-05,-1.799e-05,0.0,0 STARLINK-3737,1 52114U 22029AC  23136.90429756 -.00001799  00000-0 -95019-4 0  9991,2 52114  53.2178  13.0253 0001190  97.3351 262.7776 15.08834097 65625,6917.898,95.438,540.587,538.94,0.0
52114.0,STARLINK-3737,PAYLOAD,2023-05-17 00:52:57,15.08838595,9.7e-05,53.2174,12.4279,97.0906,263.0196,3.8571e-06,-2.26e-06,0.0,0 STARLINK-3737,1 52114U 22029AC  23137.03677688 -.00000226  00000-0  38571-5 0  9999,2 52114  53.2174  12.4279 0000970  97.0906 263.0196 15.08838595 65650,6917.885,95.438,540.421,539.079,0.0
52114.0,STARLINK-3737,PAYLOAD,2023-05-17 21:32:58,15.08837545,0.0001032,53.2179,8.5638,96.9454,263.1656,7.6623e-05,9.32e-06,0.0,0 STARLINK-3737,1 52114U 22029AC  23137.89790072  .00000932  00000-0  76623-4 0  9998,2 52114  53.2179   8.5638 0001032  96.9454 263.1656 15.08837545 65775,6917.888,95.438,540.467,539.039,0.0
52114.0,STARLINK-3737,PAYLOAD,2023-05-18 02:19:07,15.08843138,0.0001114,53.218,7.6727,107.9135,252.1979,0.00019313,2.787e-05,0.0,0 STARLINK-3737,1 52114U 22029AC  23138.09661846  .00002787  00000-0  19313-3 0  9999,2 52114  53.2180   7.6727 0001114 107.9135 252.1979 15.08843138 65812,6917.871,95.437,540.506,538.965,0.0
52114.0,STARLINK-3737,PAYLOAD,2023-05-18 18:12:59,15.08830941,0.0001187,53.2177,4.7006,105.7144,254.3979,0.0003131,4.697e-05,0.0,0 STARLINK-3737,1 52114U 22029AC  23138.75902608  .00004697  00000-0  31310-3 0  9999,2 52114  53.2177   4.7006 0001187 105.7144 254.3979 15.08830941 65904,6917.908,95.438,540.594,538.952,0.0
52114.0,STARLINK-3737,PAYLOAD,2023-05-19 00:34:32,15.08842429,0.0001268,53.2169,3.5112,79.1079,281.0056,0.00014561,2.03e-05,0.0,0 STARLINK-3737,1 52114U 22029AC  23139.02398177  .00002030  00000-0  14561-3 0  9998,2 52114  53.2169   3.5112 0001268  79.1079 281.0056 15.08842429 65953,6917.873,95.437,540.615,538.861,0.0
52114.0,STARLINK-3737,PAYLOAD,2023-05-19 21:14:32,15.08843244,0.0001062,53.2169,359.6446,87.2889,272.8225,9.1072e-05,1.162e-05,0.0,0 STARLINK-3737,1 52114U 22029AC  23139.88510081  .00001162  00000-0  91072-4 0  9990,2 52114  53.2169 359.6446 0001062  87.2889 272.8225 15.08843244 66075,6917.87,95.437,540.47,539.001,0.0
52114.0,STARLINK-3737,PAYLOAD,2023-05-20 17:54:32,15.08853234,0.0001103,53.2165,355.778,87.849,272.2629,0.0002004,2.904e-05,0.0,0 STARLINK-3737,1 52114U 22029AC  23140.74621380  .00002904  00000-0  20040-3 0  9993,2 52114  53.2165 355.7780 0001103  87.8490 272.2629 15.08853234 66217,6917.84,95.437,540.468,538.942,0.0
52114.0,STARLINK-3737,PAYLOAD,2023-05-20 21:05:18,15.08858972,0.0001083,53.2168,355.1827,90.8185,269.2931,0.00027799,4.141e-05,0.0,0 STARLINK-3737,1 52114U 22029AC  23140.87868985  .00004141  00000-0  27799-3 0  9994,2 52114  53.2168 355.1827 0001083  90.8185 269.2931 15.08858972 66225,6917.822,95.436,540.437,538.938,0.0
52114.0,STARLINK-3737,PAYLOAD,2023-05-21 14:34:34,15.08834847,0.0001085,53.2167,351.9204,83.9449,276.1666,-0.00013147,-2.379e-05,0.0,0 STARLINK-3737,1 52114U 22029AC  23141.60734413 -.00002379  00000-0 -13147-3 0  9999,2 52114  53.2167 351.9204 0001085  83.9449 276.1666 15.08834847 66334,6917.896,95.438,540.512,539.011,0.0
52114.0,STARLINK-3737,PAYLOAD,2023-05-21 20:56:07,15.08825995,8.38e-05,53.2165,350.7245,101.3834,258.7252,-0.00018871,-3.289e-05,0.0,0 STARLINK-3737,1 52114U 22029AC  23141.87230691 -.00003289  00000-0 -18871-3 0  9997,2 52114  53.2165 350.7245 0000838 101.3834 258.7252 15.08825995 66377,6917.923,95.438,540.368,539.208,0.0
52114.0,STARLINK-3737,PAYLOAD,2023-05-22 12:49:58,15.08837752,8.55e-05,53.2163,347.7491,106.3893,253.7193,0.00012207,1.655e-05,0.0,0 STARLINK-3737,1 52114U 22029AC  23142.53470681  .00001655  00000-0  12207-3 0  9996,2 52114  53.2163 347.7491 0000855 106.3893 253.7193 15.08837752 66477,6917.887,95.438,540.344,539.161,0.0
52114.0,STARLINK-3737,PAYLOAD,2023-05-22 22:22:17,15.08851101,9.35e-05,53.2164,345.9659,113.9532,246.1559,0.0008584,0.00013404,0.0,0 STARLINK-3737,1 52114U 22029AC  23142.93214661  .00013404  00000-0  85840-3 0  9992,2 52114  53.2164 345.9659 0000935 113.9532 246.1559 15.08851101 66530,6917.846,95.437,540.358,539.065,0.0
52114.0,STARLINK-3737,PAYLOAD,2023-05-23 03:08:26,15.08859541,9.27e-05,53.2159,345.0736,115.5462,244.5626,0.00084126,0.00013133,0.0,0 STARLINK-3737,1 52114U 22029AC  23143.13086370  .00013133  00000-0  84126-3 0  9994,2 52114  53.2159 345.0736 0000927 115.5462 244.5626 15.08859541 66579,6917.821,95.436,540.327,539.044,0.0
52114.0,STARLINK-3737,PAYLOAD,2023-05-23 04:43:50,15.08838554,8.99e-05,53.2162,344.7766,104.8363,255.2729,1.0748e-05,-1.17e-06,0.0,0 STARLINK-3737,1 52114U 22029AC  23143.19710766 -.00000117  00000-0  10748-4 0  9992,2 52114  53.2162 344.7766 0000899 104.8363 255.2729 15.08838554 66586,6917.885,95.438,540.372,539.128,0.0
52114.0,STARLINK-3737,PAYLOAD,2023-05-23 22:13:04,15.08851426,8.05e-05,53.2164,341.5056,110.3501,249.7577,0.000585,9.038e-05,0.0,0 STARLINK-3737,1 52114U 22029AC  23143.92574518  .00009038  00000-0  58500-3 0  9993,2 52114  53.2164 341.5056 0000805 110.3501 249.7577 15.08851426 66681,6917.845,95.437,540.267,539.154,0.0
52114.0,STARLINK-3737,PAYLOAD,2023-05-24 02:59:13,15.08853708,8.24e-05,53.2162,340.6131,107.8793,252.2289,0.00071093,0.00011049,0.0,0 STARLINK-3737,1 52114U 22029AC  23144.12446442  .00011049  00000-0  71093-3 0  9997,2 52114  53.2162 340.6131 0000824 107.8793 252.2289 15.08853708 66727,6917.838,95.437,540.274,539.133,0.0
52114.0,STARLINK-3737,PAYLOAD,2023-05-24 06:10:00,15.08842184,8.69e-05,53.2161,340.0186,101.5918,258.5172,0.00035882,5.428e-05,0.0,0 STARLINK-3737,1 52114U 22029AC  23144.25694687  .00005428  00000-0  35882-3 0  9997,2 52114  53.2161 340.0186 0000869 101.5918 258.5172 15.08842184 66747,6917.874,95.437,540.34,539.138,0.0
52114.0,STARLINK-3737,PAYLOAD,2023-05-24 15:42:19,15.08843667,8.03e-05,53.216,338.2344,100.9518,259.1565,0.00045151,6.906e-05,0.0,0 STARLINK-3737,1 52114U 22029AC  23144.65438696  .00006906  00000-0  45151-3 0  9999,2 52114  53.2160 338.2344 0000803 100.9518 259.1565 15.08843667 66793,6917.869,95.437,540.29,539.179,0.0
52114.0,STARLINK-3737,PAYLOAD,2023-05-25 18:43:52,15.08848273,8.08e-05,53.2163,333.1792,89.3887,270.7198,0.00030029,4.496e-05,0.0,0 STARLINK-3737,1 52114U 22029AC  23145.78046537  .00004496  00000-0  30029-3 0  9993,2 52114  53.2163 333.1792 0000808  89.3887 270.7198 15.08848273 66970,6917.855,95.437,540.279,539.161,0.0
52114.0,STARLINK-3737,PAYLOAD,2023-05-25 20:19:15,15.08850068,7.52e-05,53.2165,332.8821,89.0224,271.0855,0.00033553,5.058e-05,0.0,0 STARLINK-3737,1 52114U 22029AC  23145.84670443  .00005058  00000-0  33553-3 0  9999,2 52114  53.2165 332.8821 0000752  89.0224 271.0855 15.08850068 66970,6917.85,95.437,540.235,539.194,0.0
52114.0,STARLINK-3737,PAYLOAD,2023-05-26 18:34:39,15.08842617,9.14e-05,53.2165,328.7187,84.1085,276.0011,0.0001214,1.645e-05,0.0,0 STARLINK-3737,1 52114U 22029AC  23146.77406695  .00001645  00000-0  12140-3 0  9995,2 52114  53.2165 328.7187 0000914  84.1085 276.0011 15.08842617 67128,6917.872,95.437,540.37,539.105,0.0
52114.0,STARLINK-3737,PAYLOAD,2023-05-27 18:25:26,15.08838898,8.48e-05,53.2169,324.2585,86.7944,273.3145,3.2551e-05,2.3e-06,0.0,0 STARLINK-3737,1 52114U 22029AC  23147.76767081  .00000230  00000-0  32551-4 0  9992,2 52114  53.2169 324.2585 0000848  86.7944 273.3145 15.08838898 67273,6917.884,95.438,540.335,539.162,0.0
52114.0,STARLINK-3737,PAYLOAD,2023-05-27 21:36:12,15.08840606,8.71e-05,53.2169,323.6634,86.4584,273.6508,3.8894e-05,3.31e-06,0.0,0 STARLINK-3737,1 52114U 22029AC  23147.90014939  .00000331  00000-0  38894-4 0  9993,2 52114  53.2169 323.6634 0000871  86.4584 273.6508 15.08840606 67281,6917.879,95.438,540.346,539.141,0.0
52114.0,STARLINK-3737,PAYLOAD,2023-05-28 18:16:13,15.08845765,8.63e-05,53.217,319.7972,84.4801,275.6289,0.0001306,1.792e-05,0.0,0 STARLINK-3737,1 52114U 22029AC  23148.76126491  .00001792  00000-0  13060-3 0  9994,2 52114  53.2170 319.7972 0000863  84.4801 275.6289 15.08845765 67419,6917.863,95.437,540.325,539.131,0.0
52114.0,STARLINK-3737,PAYLOAD,2023-05-29 14:56:14,15.08838023,8.95e-05,53.2169,315.9317,82.8044,277.305,0.00010797,1.431e-05,0.0,0 STARLINK-3737,1 52114U 22029AC  23149.62239076  .00001431  00000-0  10797-3 0  9998,2 52114  53.2169 315.9317 0000895  82.8044 277.3050 15.08838023 67542,6917.886,95.438,540.371,539.132,0.0
52114.0,STARLINK-3737,PAYLOAD,2023-05-29 18:07:00,15.08842301,8.52e-05,53.2168,315.3372,79.4294,280.6794,0.00014632,2.042e-05,0.0,0 STARLINK-3737,1 52114U 22029AC  23149.75486736  .00002042  00000-0  14632-3 0  9990,2 52114  53.2168 315.3372 0000852  79.4294 280.6794 15.08842301 67577,6917.873,95.437,540.328,539.149,0.0
52114.0,STARLINK-3737,PAYLOAD,2023-05-30 03:39:19,15.08838149,8.5e-05,53.2173,313.5559,86.8159,273.2931,4.0821e-05,3.62e-06,0.0,0 STARLINK-3737,1 52114U 22029AC  23150.15231243  .00000362  00000-0  40821-4 0  9990,2 52114  53.2173 313.5559 0000850  86.8159 273.2931 15.08838149 67633,6917.886,95.438,540.339,539.163,0.0
